{
  "norad_id": 67029,
  "name": "STARLINK-36190",
  "history": [
    {
      "epoch": "2026-05-03T16:49:41.056896Z",
      "apogee_km": 573.9342228321202,
      "perigee_km": 570.1158038219974,
      "latitude_deg": 4.059635653689744e-05,
      "longitude_deg": -158.09603676673788,
      "height_km": 574.535961777273,
      "semi_major_axis_km": 6950.162013327058,
      "eccentricity": 0.0002747,
      "inclination_deg": 70.0014,
      "raan_deg": 315.9261,
      "arg_perigee_deg": 267.4894,
      "mean_anomaly_deg": 92.5951,
      "mean_motion_rev_day": 14.98339985
    },
    {
      "epoch": "2026-05-04T18:27:51.051168Z",
      "apogee_km": 573.7880202327415,
      "perigee_km": 570.3768525333644,
      "latitude_deg": 1.6833707086436487e-05,
      "longitude_deg": 173.61587057689155,
      "height_km": 574.5108936007748,
      "semi_major_axis_km": 6950.219436383052,
      "eccentricity": 0.0002454,
      "inclination_deg": 70.0024,
      "raan_deg": 313.2325,
      "arg_perigee_deg": 269.9529,
      "mean_anomaly_deg": 90.1349,
      "mean_motion_rev_day": 14.98321416
    },
    {
      "epoch": "2026-05-05T18:29:52.914048Z",
      "apogee_km": 574.2456753239803,
      "perigee_km": 569.8934559725712,
      "latitude_deg": 4.00160553410178e-05,
      "longitude_deg": 169.59597799275892,
      "height_km": 574.3991282656615,
      "semi_major_axis_km": 6950.2065656482755,
      "eccentricity": 0.0003131,
      "inclination_deg": 70.001,
      "raan_deg": 310.7074,
      "arg_perigee_deg": 272.5829,
      "mean_anomaly_deg": 87.4972,
      "mean_motion_rev_day": 14.98325578
    }
  ]
}